OPTICUBE 04             
1 41851U 16067D   25046.46342646  .00005633  00000+0  38950-3 0  9995
2 41851  98.0881 228.4941 0016470 322.6106  37.3972 15.06045208451814
AEROCUBE 8D             
1 41852U 16067E   25046.76588899  .00012721  00000+0  68815-3 0  9990
2 41852  98.1124 236.6735 0004702  15.1454 344.9917 15.14806747452182
AEROCUBE 8C             
1 41853U 16067F   25046.58104445  .00013524  00000+0  73010-3 0  9997
2 41853  98.0958 234.4914 0006137 300.5524  59.5100 15.14857565452148
PROMETHEUS 2-1          
1 41854U 16067G   25046.81668999  .00048494  00000+0  13869-2 0  9992
2 41854  98.0906 247.8517 0008587 299.4942  60.5442 15.35782208452875
PROMETHEUS 2-3          
1 41855U 16067H   25046.82355786  .00048575  00000+0  13927-2 0  9996
2 41855  98.0850 247.1161 0007549 309.0456  51.0114 15.35711160452877
CORVUS BC2              
1 42846U 17042X   25046.88088930  .00006747  00000+0  52525-3 0  9994
2 42846  97.3694 225.0732 0012482 329.2101  30.8391 15.01481417413969
CORVUS BC1              
1 42847U 17042Y   25046.94994042  .00007377  00000+0  57098-3 0  9992
2 42847  97.3721 225.5839 0011133 305.4616  54.5569 15.01689107413992
MIRATA                  
1 43015U 17073C   25046.95244467  .00058692  00000+0  15590-2 0  9990
2 43015  97.5594 298.1109 0115932 133.1890 227.9109 15.31431965393317
MAKERSAT 0              
1 43016U 17073D   25046.61264548  .00024605  00000+0  11019-2 0  9995
2 43016  97.5380 286.1681 0160600 173.1499 187.1981 15.10344387392495
SIRION PATHFINDER-2     
1 43759U 18099B   25046.86192779  .00009700  00000+0  63495-3 0  9996
2 43759  97.4949 102.5591 0010425 167.8911 192.2570 15.07907063339166
CORVUS BC4              
1 43767U 18099K   25047.11879836  .00008597  00000+0  58339-3 0  9994
2 43767  97.4769  99.1357 0008264 225.6063 134.4489 15.06622364339068
MOVE-II                 
1 43780U 18099Y   25047.14946463  .00088172  00000+0  20417-2 0  9995
2 43780  97.4828 117.4040 0004322 198.4055 161.7036 15.42112171340154
SPACEBEE-7              
1 43816U 18099BL  25046.75631663  .00037254  00000+0  14008-2 0  9998
2 43816  97.5120 115.5172 0007687 156.7186 203.4402 15.27027344339377
SHIELDS 1               
1 43850U 18104B   25046.92028461  .00036519  00000+0  60196-3 0  9991
2 43850  85.0174 116.0645 0007474 210.2558 149.8270 15.52112368343774
SONATE                  
1 44400U 19038Q   25047.00243357  .00082523  00000+0  10528-2 0  9992
2 44400  97.7099  61.9668 0006998 319.2110  40.8621 15.58990091311711
DUCHIFAT-3              
1 44854U 19089C   25047.15177766  .00053078  00000+0  15573-2 0  9995
2 44854  36.9500 350.0229 0009719 313.3475  46.6467 15.34120398285445
M2 PATHFINDER           
1 45727U 20037E   25046.45652919  .00006724  00000+0  53452-3 0  9995
2 45727  97.7947 228.4187 0012655  10.6406 349.5083 15.00710846252382
NETSAT-4                
1 46504U 20068U   25047.13518526  .00024863  00000+0  98622-3 0  9996
2 46504  97.8361  19.0333 0006133 224.1468 135.9280 15.25349722241223
NETSAT-3                
1 46505U 20068V   25046.90136254  .00020277  00000+0  83000-3 0  9994
2 46505  97.8351  17.9692 0005460 239.9259 120.1436 15.24341429241169
NETSAT-1                
1 46506U 20068W   25046.89875097  .00015813  00000+0  72194-3 0  9990
2 46506  97.8375  16.5306 0004692 259.7379 100.3326 15.20682756241066
NETSAT-2                
1 46507U 20068X   25046.90464879  .00022676  00000+0  90681-3 0  9991
2 46507  97.8353  18.3430 0003596 262.0799  98.0030 15.25107758241138
WILDTRACKCUBE-SIMBA     
1 47941U 21022K   25047.15403898  .00038968  00000+0  10910-2 0  9994
2 47941  97.4354 309.7687 0012093  13.7183 346.4387 15.36460871215720
GRBALPHA                
1 47959U 21022AD  25047.12802950  .00101868  00000+0  16165-2 0  9990
2 47959  97.4320 314.8025 0008150  11.5395 348.6043 15.52973937214873
LEDSAT                  
1 49069U 21073D   25047.19914740  .00059161  00000+0  12641-2 0  9991
2 49069  97.4032 125.3369 0013102 132.7831 227.4521 15.44554535193845
ROBUSTA-1F (MTCUBE 2)   
1 53109U 22080E   25045.57568683 -.00000003  00000+0  00000+0 0  9996
2 53109  70.1228 107.8362 0008361  34.3647 325.7552  6.42584170 60734
SITRO-AIS 5 (KATYS)     
1 57176U 23091L   25047.13032024  .00015859  00000+0  81775-3 0  9992
2 57176  97.5761 104.0555 0015162   8.9856 351.1645 15.16344690 90366
SITRO-AIS 6 (CHIRKIN)   
1 57192U 23091AC  25047.17811053  .00016728  00000+0  86369-3 0  9991
2 57192  97.5759 104.1294 0015058   8.0249 352.1221 15.16288513 90376
SITRO-AIS 8 (ANOKHIN)   
1 57193U 23091AD  25047.11197324  .00018732  00000+0  93870-3 0  9996
2 57193  97.5756 104.3571 0014579   8.4866 351.6611 15.17319234 90384
SITRO-AIS 7 (FARTUSHNIY)
1 57194U 23091AE  25047.12775310  .00015857  00000+0  82025-3 0  9990
2 57194  97.5758 104.0329 0014947   9.4534 350.6977 15.16234131 90360
SITRO-AIS 10 (BURDAEV)  
1 57199U 23091AK  25047.12412921  .00021254  00000+0  98521-3 0  9997
2 57199  97.5767 106.1407 0009964 355.6847   4.4300 15.20053314 90496
SITRO-AIS 9 (SHCHUKIN)  
1 57201U 23091AM  25047.13069030  .00021016  00000+0  97745-3 0  9994
2 57201  97.5762 106.0937 0009902 356.1118   4.0038 15.19941001 90492
SITRO-AIS 12 (SMIRENNIY)
1 57204U 23091AQ  25047.12773685  .00021119  00000+0  97669-3 0  9993
2 57204  97.5772 106.3236 0009743 349.6054  10.4978 15.20136066 90505
SITRO-AIS 11 (SHEFFER)  
1 57208U 23091AU  25047.15949148  .00021027  00000+0  96800-3 0  9993
2 57208  97.5772 106.4166 0009586 350.3021   9.8027 15.20296608 90517
VERONIKA                
1 58261U 23174F   25047.18454564  .00079259  00000+0  16843-2 0  9999
2 58261  97.4279 128.8951 0007085  98.0529 262.1524 15.44694529 71042
ROBUSTA-1E (ENSO)       
1 58470U 23185J   25047.13549053  .00052905  00000+0  12410-2 0  9991
2 58470  97.3896 119.7228 0009212 130.1961 230.0094 15.41845703 67473
SITRO-AIS 29            
1 59052U 24039B   25047.13323729  .00133484  00000+0  16913-2 0  9991
2 59052  97.4139  18.0078 0013827  71.4286 288.8471 15.58910926 54147
SITRO-AIS 30            
1 59053U 24039C   25047.19183859  .00124619  00000+0  16458-2 0  9990
2 59053  97.4133  17.9187 0013947  71.1476 289.1291 15.57833432 54130
SITRO-AIS 31            
1 59054U 24039D   25047.13276882  .00132076  00000+0  16938-2 0  9993
2 59054  97.4150  18.0068 0013845  73.4027 286.8748 15.58594237 54155
SITRO-AIS 33            
1 59055U 24039E   25047.10469591  .00124170  00000+0  15846-2 0  9995
2 59055  97.4136  18.0522 0013500  72.7416 287.5316 15.58757404 54142
SITRO-AIS 35            
1 59056U 24039F   25047.15797827  .00131163  00000+0  16598-2 0  9992
2 59056  97.4149  18.1333 0013552  74.7403 285.5351 15.58956704 54155
SITRO-AIS 32            
1 59057U 24039G   25047.08269787  .00123464  00000+0  16134-2 0  9995
2 59057  97.4150  17.9374 0013702  73.1288 287.1469 15.58124327 54135
SITRO-AIS 34            
1 59058U 24039H   25047.16943742  .00129951  00000+0  16583-2 0  9990
2 59058  97.4139  18.1217 0013461  72.8276 287.4452 15.58739688 54156
SITRO-AIS 36            
1 59059U 24039J   25047.14705306  .00120319  00000+0  15439-2 0  9999
2 59059  97.4129  18.1392 0013170  73.2890 286.9811 15.58629846 54151
SITRO-AIS 49            
1 59060U 24039K   25047.18320841  .00129473  00000+0  16880-2 0  9993
2 59060  97.4136  18.0995 0013478  72.7548 287.5182 15.58169541 54153
SITRO-AIS 50            
1 59061U 24039L   25047.15667952  .00140327  00000+0  17341-2 0  9992
2 59061  97.4125  18.2756 0012961  72.4848 287.7824 15.59564401 54166
SITRO-AIS 51            
1 59062U 24039M   25047.14546801  .00136267  00000+0  16648-2 0  9998
2 59062  97.4130  18.2895 0012966  72.6042 287.6631 15.59879430 54166
SITRO-AIS 52            
1 59063U 24039N   25047.18773060  .00138535  00000+0  16832-2 0  9997
2 59063  97.4138  18.3981 0013127  74.7162 285.5545 15.60014717 54171
SITRO-AIS 25            
1 59066U 24039R   25047.11333429  .00008406  00000+0  73743-3 0  9992
2 59066  95.3810 262.8641 0158400 220.5024 138.4324 14.87527425 52317
SITRO-AIS 26            
1 59067U 24039S   25047.12813295  .00008731  00000+0  76834-3 0  9993
2 59067  95.3810 262.8501 0158586 220.5790 138.3525 14.87383018 52318
SITRO-AIS 27            
1 59068U 24039T   25047.14722259  .00009759  00000+0  85310-3 0  9995
2 59068  95.3814 262.9476 0157840 220.0229 138.9277 14.87691207 52322
SITRO-AIS 28            
1 59071U 24039U   25047.13739190  .00009628  00000+0  84111-3 0  9993
2 59071  95.3813 262.9607 0157714 219.9982 138.9540 14.87729980 52327
GRBBETA                 
1 60237U 24128C   25047.15339557  .00007228  00000+0  57096-3 0  9999
2 60237  61.9920 114.5750 0040694  31.0715 329.2769 15.00869425 33161
OOV-CUBE (TUBSAT-30)    
1 60240U 24128F   25046.65316758  .00004452  00000+0  37544-3 0  9997
2 60240  61.9965 117.7612 0039100  27.2532 333.0597 14.99091092 33076
ROBUSTA-3A (MEDITERRAN*)
1 60243U 24128J   25046.91074305  .00011417  00000+0  87174-3 0  9991
2 60243  61.9889 115.5371 0039154  23.2455 337.0395 15.01783251 33137
LASARSAT                
1 62391U 24247Q   25046.75020840  .00023558  00000+0  10697-2 0  9990
2 62391  44.9924  57.6264 0003539  64.5835 295.5411 15.20440373  8707
CROCUBE                 
1 62394U 24247T   25046.75207176  .00024625  00000+0  11176-2 0  9991
2 62394  44.9919  57.6372 0003993  67.0984 293.0317 15.20434839  8709
